SBSS (USA 216)          
1 37168U 10048A   26068.88624904  .00004946  00000+0  24191-3 0  9993
2 37168  97.7474 312.3885 0082264 184.8326 306.5835 15.15724210837421
STARLINK-31125          
1 58678U 23211M   26068.10153354 -.00000078  00000+0  66634-5 0  9992
2 58678  43.0021  88.6818 0000687 254.9458 105.1318 15.27579104123548
